BEIDOU-2 IGSO-1 (C06)   
1 36828U 10036A   25232.77076561 -.00000168  00000+0  00000+0 0  9994
2 36828  54.2797 165.6817 0048708 217.2936 330.0823  1.00258101 55089
BEIDOU-2 G4 (C04)       
1 37210U 10057A   25234.51294728 -.00000130  00000+0  00000+0 0  9993
2 37210   2.9013  70.3100 0007060 167.8051  77.6534  1.00272439 54292
BEIDOU-2 IGSO-2 (C07)   
1 37256U 10068A   25234.55347547 -.00000170  00000+0  00000+0 0  9991
2 37256  48.0848 275.5302 0048645 215.6854 146.8701  1.00268036 53808
BEIDOU-2 IGSO-3 (C08)   
1 37384U 11013A   25230.41346553 -.00000151  00000+0  00000+0 0  9990
2 37384  61.9764  43.0156 0032504 176.0071   0.7796  1.00250840 52629
BEIDOU-2 IGSO-4 (C09)   
1 37763U 11038A   25233.79663916 -.00000132  00000+0  00000+0 0  9996
2 37763  54.5815 168.3598 0144840 231.0474 312.1526  1.00264514 51647
BEIDOU-2 IGSO-5 (C10)   
1 37948U 11073A   25230.09003181 -.00000125  00000+0  00000+0 0  9994
2 37948  48.2304 275.2917 0110348 220.9252 319.1434  1.00273146 50099
BEIDOU-2 G5 (C05)       
1 38091U 12008A   25234.62594601  .00000040  00000+0  00000+0 0  9993
2 38091   2.8251  71.1057 0006043 236.6810 307.4058  1.00270251 49379
BEIDOU-2 M3 (C11)       
1 38250U 12018A   25232.49252057 -.00000078  00000+0  00000+0 0  9992
2 38250  56.0127 314.9978 0023202 265.9579  93.8310  1.86233605 90348
BEIDOU-2 M4 (C12)       
1 38251U 12018B   25232.96213253 -.00000076  00000+0  00000+0 0  9998
2 38251  55.9151 314.2204 0014027 265.1711  94.7253  1.86232042 90355
BEIDOU-2 M6 (C14)       
1 38775U 12050B   25233.74669414 -.00000012  00000+0  00000+0 0  9996
2 38775  56.2779  72.8143 0011919 355.9486   4.1182  1.86231031 87730
BEIDOU-2 G6 (C02)       
1 38953U 12059A   25235.05739389 -.00000192  00000+0  00000+0 0  9997
2 38953   3.6599  76.6522 0007252 318.4720  41.0459  1.00275136 46919
BEIDOU-3S IGSO-1S (C31) 
1 40549U 15019A   25232.70548675 -.00000156  00000+0  00000+0 0  9995
2 40549  49.7631 299.0817 0041345 195.0619 183.1102  1.00263559 38062
BEIDOU-3S M2S (C58)     
1 40748U 15037A   25234.24010341 -.00000074  00000+0  00000+0 0  9990
2 40748  55.1337 312.3259 0011510 251.6497 108.2879  1.86229198 68551
BEIDOU-3S M1S (C57)     
1 40749U 15037B   25233.41140425 -.00000073  00000+0  00000+0 0  9995
2 40749  55.1310 312.3453 0002302   4.1756 355.8863  1.86253915 68543
BEIDOU-3S IGSO-2S (C56) 
1 40938U 15053A   25233.55139497 -.00000071  00000+0  00000+0 0  9993
2 40938  49.6860 262.3429 0060660 191.1115 167.5932  1.00252967 36345
BEIDOU-2 IGSO-6 (C13)   
1 41434U 16021A   25232.93169652 -.00000139  00000+0  00000+0 0  9993
2 41434  59.8071  41.0324 0055242 227.5963 132.1651  1.00275162 34475
BEIDOU-2 G7 (C03)       
1 41586U 16037A   25234.98245858 -.00000370  00000+0  00000+0 0  9995
2 41586   1.9247  69.4773 0008246   9.8806 356.3818  1.00270049  3905
BEIDOU-3 M1 (C19)       
1 43001U 17069A   25234.04924189 -.00000011  00000+0  00000+0 0  9995
2 43001  56.4271  72.9560 0007817 321.2844  38.7360  1.86231335 53031
BEIDOU-3 M2 (C20)       
1 43002U 17069B   25230.76565829 -.00000019  00000+0  00000+0 0  9991
2 43002  56.4226  73.1010 0006807 355.5955   4.4715  1.86230766 52968
BEIDOU-3 M7 (C27)       
1 43107U 18003A   25234.26890135 -.00000076  00000+0  00000+0 0  9999
2 43107  54.5920 312.7259 0003172  98.2728 261.8248  1.86232586 51783
BEIDOU-3 M8 (C28)       
1 43108U 18003B   25233.13897697 -.00000075  00000+0  00000+0 0  9994
2 43108  54.5858 312.7486 0004209 252.7422 107.2702  1.86230979 51777
BEIDOU-3 M4 (C22)       
1 43207U 18018A   25230.89572949 -.00000019  00000+0  00000+0 0  9998
2 43207  56.3827  73.1346 0006470  31.9079 328.2046  1.86231055 51113
BEIDOU-3 M3 (C21)       
1 43208U 18018B   25232.03621918 -.00000014  00000+0  00000+0 0  9993
2 43208  56.3832  73.1010 0006264 343.1409  16.9141  1.86231046 51133
BEIDOU-3 M9 (C29)       
1 43245U 18029A   25233.32693213 -.00000070  00000+0  00000+0 0  9998
2 43245  54.4639 310.4227 0001741 219.6685 140.3809  1.86232687 50317
BEIDOU-3 M10 (C30)      
1 43246U 18029B   25234.33477925 -.00000072  00000+0  00000+0 0  9993
2 43246  54.4607 310.4155 0002567  12.4913 347.5799  1.86229182 50318
BEIDOU-2 IGSO-7 (C16)   
1 43539U 18057A   25234.53192000 -.00000173  00000+0  00000+0 0  9991
2 43539  55.1707 165.6537 0092607 237.0229 230.6432  1.00291306 26137
BEIDOU-3 M5 (C23)       
1 43581U 18062A   25231.87473601  .00000002  00000+0  00000+0 0  9997
2 43581  54.0984 192.5483 0005076 291.1718  68.7342  1.86228632 48024
BEIDOU-3 M6 (C24)       
1 43582U 18062B   25231.73847411  .00000005  00000+0  00000+0 0  9990
2 43582  54.0981 192.5420 0005287  10.6774 349.2947  1.86229656 48028
BEIDOU-3 M12 (C26)      
1 43602U 18067A   25231.67498448  .00000004  00000+0  00000+0 0  9992
2 43602  54.1917 191.2650 0007748  26.6412 333.3593  1.86227635 47500
BEIDOU-3 M11 (C25)      
1 43603U 18067B   25231.27224333  .00000010  00000+0  00000+0 0  9996
2 43603  54.1889 191.2429 0004478  11.6331 348.3403  1.86227103 47522
BEIDOU-3 M13 (C32)      
1 43622U 18072A   25230.15633409 -.00000023  00000+0  00000+0 0  9992
2 43622  56.3547  72.6785 0004696 326.4297  33.6115  1.86231229 47017
BEIDOU-3 M14 (C33)      
1 43623U 18072B   25230.02180565 -.00000023  00000+0  00000+0 0  9999
2 43623  56.3565  72.6768 0004217  13.7815 346.3008  1.86231262 47001
BEIDOU-3 M16 (C35)      
1 43647U 18078A   25229.10712284 -.00000072  00000+0  00000+0 0  9991
2 43647  54.3641 310.6334 0005924  27.1706 332.9133  1.86232149 46495
BEIDOU-3 M15 (C34)      
1 43648U 18078B   25230.31021605 -.00000072  00000+0  00000+0 0  9997
2 43648  54.3588 310.5927 0002599  40.3968 319.6761  1.86232256 46538
BEIDOU-3 G1 (C59)       
1 43683U 18085A   25234.55997550 -.00000296  00000+0  00000+0 0  9993
2 43683   2.8261 106.1093 0003870   4.6461 201.9859  1.00271302 25067
BEIDOU-3 M17 (C36)      
1 43706U 18093A   25233.43524773 -.00000015  00000+0  00000+0 0  9996
2 43706  54.1816 192.4654 0009711 290.9455 259.2480  1.86228285 45955
BEIDOU-3 M18 (C37)      
1 43707U 18093B   25234.08709634 -.00000017  00000+0  00000+0 0  9992
2 43707  54.1822 192.4350 0007982 319.2330  40.6588  1.86229976 45961
BEIDOU-3 IGSO-1 (C38)   
1 44204U 19023A   25229.88586639 -.00000201  00000+0  00000+0 0  9994
2 44204  58.2691  40.7803 0024316 215.4023 148.2877  1.00278704  4170
BEIDOU-2 G8 (C01)       
1 44231U 19027A   25234.56092883 -.00000267  00000+0  00000+0 0  9994
2 44231   1.8550  75.1939 0003846 233.1363   9.1508  1.00267271 23083
BEIDOU-3 IGSO-2 (C39)   
1 44337U 19035A   25233.71691899 -.00000184  00000+0  00000+0 0  9996
2 44337  55.2151 161.4955 0035068 209.6523 334.0989  1.00250437 22666
BEIDOU-3 M24 (C46)      
1 44542U 19061A   25234.15837282 -.00000016  00000+0  00000+0 0  9994
2 44542  54.4094 192.8128 0008587 357.0784   2.8680  1.86229336 40222
BEIDOU-3 M23 (C45)      
1 44543U 19061B   25233.93298808 -.00000016  00000+0  00000+0 0  9995
2 44543  54.4078 192.7887 0005795 339.3213 142.2973  1.86229502 40223
BEIDOU-3 IGSO-3 (C40)   
1 44709U 19073A   25234.53864843 -.00000156  00000+0  00000+0 0  9992
2 44709  55.3112 284.1264 0045652 190.9977 169.0212  1.00278370 21466
BEIDOU-3 M22 (C44)      
1 44793U 19078A   25230.24135251 -.00000072  00000+0  00000+0 0  9995
2 44793  54.2099 310.4734 0004693  36.1860 323.8993  1.86232099 39005
BEIDOU-3 M21 (C43)      
1 44794U 19078B   25230.37632140 -.00000072  00000+0  00000+0 0  9999
2 44794  54.1831 310.4359 0002708  29.0829 330.9860  1.86227701 39010
BEIDOU-3 M19 (C41)      
1 44864U 19090A   25230.35335022 -.00000022  00000+0  00000+0 0  9993
2 44864  56.2892  72.8194 0015676 289.9572 249.3662  1.86231398 38596
BEIDOU-3 M20 (C42)      
1 44865U 19090B   25233.92766169 -.00000012  00000+0  00000+0 0  9999
2 44865  56.2939  72.7348 0013341 305.5825 199.7630  1.86231510 38647
BEIDOU-3 G2 (C60)       
1 45344U 20017A   25234.54810212 -.00000158  00000+0  00000+0 0  9992
2 45344   2.9884  41.7238 0001778 137.5330  69.1859  1.00272757 20262
BEIDOU-3 G3 (C61)       
1 45807U 20040A   25232.78409072 -.00000372  00000+0  00000+0 0  9992
2 45807   1.7116  65.2529 0004308 335.4598 321.4431  1.00274649 19059
BEIDOU-3 G4 (C62)       
1 56564U 23066A   25232.69697516 -.00000129  00000+0  00000+0 0  9997
2 56564   1.0747 294.8677 0006195 205.0139 240.3079  1.00272560  8388
BEIDOU-3 M28 (C50)      
1 58654U 23207A   25234.21418781 -.00000016  00000+0  00000+0 0  9996
2 58654  55.4822  72.4087 0001102  21.7752 338.3045  1.86229925 11273
BEIDOU-3 M26 (C48)      
1 58655U 23207B   25233.47583600 -.00000015  00000+0  00000+0 0  9996
2 58655  55.4838  72.4198 0000806 271.6600  88.4065  1.86231577 11240
BEIDOU-3 M25 (C47)      
1 61186U 24168B   25234.36229587 -.00000076  00000+0  00000+0 0  9993
2 61186  54.7371 312.6140 0004365 278.5426  73.1985  1.86230095  6216
BEIDOU-3 M27 (C49)      
1 61187U 24168C   25233.11873054 -.00000074  00000+0  00000+0 0  9998
2 61187  54.7336 312.6411 0000605 321.1711  51.7260  1.86230059  3679
